IRIDIUM 26              
1 24903U 97043A   25062.34965426  .00000870  00000+0  28710-3 0  9990
2 24903  86.4021 155.0650 0002366  94.8319 265.3148 14.37007233441541
IRIDIUM 22              
1 24907U 97043E   25062.81979315  .00000763  00000+0  25702-3 0  9997
2 24907  86.4030 158.3111 0002097  94.8482 265.2954 14.35837190441641
DUMMY MASS 1            
1 24925U 97048A   25062.82773297  .00001059  00000+0  11559-3 0  9998
2 24925  86.3412 183.9994 0007782 144.1823 215.9925 14.86834353489715
DUMMY MASS 2            
1 24926U 97048B   25062.83967336  .00001055  00000+0  11590-3 0  9990
2 24926  86.3409 185.5796 0008144 155.6305 204.5307 14.86587249489497
IRIDIUM 29              
1 24944U 97051A   25062.39172076  .00001043  00000+0  35026-3 0  9991
2 24944  86.4022 188.2225 0001826  96.3182 263.8223 14.36317802438085
IRIDIUM 33              
1 24946U 97051C   25062.39832950  .00000711  00000+0  24396-3 0  9996
2 24946  86.3938 187.4721 0009649  70.0439 290.1796 14.34789659437571
IRIDIUM 28              
1 24948U 97051E   25062.43359324  .00000955  00000+0  31412-3 0  9999
2 24948  86.4030 185.7839 0002461  90.8121 269.3358 14.37250190438659
IRIDIUM 36              
1 24967U 97056C   25062.48232048  .00000983  00000+0  32224-3 0  9996
2 24967  86.3977 217.3504 0002041  85.8871 274.2560 14.37448501437036
